STARLINK-36542          
1 67445U 26008A   26044.25002315 -.01997821  00000+0 -48312-1 0  9993
2 67445  43.0002 343.7916 0001123 289.6943 239.8700 15.43822931  5875
STARLINK-36539          
1 67446U 26008B   26044.25002315 -.01891117  00000+0 -56923-1 0  9992
2 67446  43.0001 343.8260 0001037 285.9540 229.3845 15.37084831  5870
STARLINK-36440          
1 67447U 26008C   26044.25002315 -.01984070  00000+0 -45868-1 0  9990
2 67447  42.9998 343.2686 0001570 264.1766 117.0962 15.45103182  5874
STARLINK-36423          
1 67448U 26008D   26043.00096519  .00071866  00000+0  12205-2 0  9999
2 67448  42.9995 351.1629 0001096 233.8361 126.2398 15.50558051  5638
STARLINK-36519          
1 67449U 26008E   26044.25002315 -.01954549  00000+0 -56521-1 0  9998
2 67449  42.9997 343.5071 0000851 265.9949  18.5833 15.38425059  5873
STARLINK-36525          
1 67450U 26008F   26044.25002315 -.02022516  00000+0 -42728-1 0  9995
2 67450  43.0004 343.7383 0001095 272.3612 277.7087 15.47757485  5875
STARLINK-36511          
1 67451U 26008G   26044.25002315 -.01978727  00000+0 -47683-1 0  9994
2 67451  43.0007 343.8776 0001349 278.4102 215.4975 15.43889190  5879
STARLINK-36524          
1 67452U 26008H   26044.25002315 -.01996245  00000+0 -56805-1 0  9996
2 67452  43.0004 343.8139 0001060 287.6318 231.7742 15.38988061  5875
STARLINK-36518          
1 67453U 26008J   26044.25002315 -.01934495  00000+0 -66878-1 0  9997
2 67453  42.9999 343.4840 0001009 267.0885  19.4995 15.32873763  5895
STARLINK-36517          
1 67454U 26008K   26044.25002315 -.02009502  00000+0 -42069-1 0  9997
2 67454  43.0002 343.9047 0001385 277.9790 204.5418 15.47990541  5896
STARLINK-36516          
1 67455U 26008L   26043.89557133  .00086976  00000+0  14676-2 0  9990
2 67455  42.9995 345.8319 0001884 232.1478 127.9212 15.50661786  5776
STARLINK-36493          
1 67456U 26008M   26044.21532216  .00082808  00000+0  14006-2 0  9990
2 67456  43.0034 343.9275 0003267 253.2584 106.7918 15.50613690  5827
