CCSDS_OMM_VERS = 2.0
CREATION_DATE  = 
ORIGINATOR     = 

OBJECT_NAME    = STARLINK-36542
OBJECT_ID      = 2026-008A
CENTER_NAME    = EARTH
REF_FRAME      = TEME
TIME_SYSTEM    = UTC
MEAN_ELEMENT_THEORY = SGP/SGP4

EPOCH          = 2026-02-13T06:00:02.000160
MEAN_MOTION    = 15.43822931
ECCENTRICITY   = .0001123
INCLINATION    = 43.0002
RA_OF_ASC_NODE = 343.7916
ARG_OF_PERICENTER = 289.6943
MEAN_ANOMALY   = 239.8700

EPHEMERIS_TYPE = 0
CLASSIFICATION_TYPE = U
NORAD_CAT_ID   = 67445
ELEMENT_SET_NO = 999
REV_AT_EPOCH   = 587
BSTAR          = -.48311851E-1
MEAN_MOTION_DOT = -.1997821E-1
MEAN_MOTION_DDOT = 0

CCSDS_OMM_VERS = 2.0
CREATION_DATE  = 
ORIGINATOR     = 

OBJECT_NAME    = STARLINK-36539
OBJECT_ID      = 2026-008B
CENTER_NAME    = EARTH
REF_FRAME      = TEME
TIME_SYSTEM    = UTC
MEAN_ELEMENT_THEORY = SGP/SGP4

EPOCH          = 2026-02-13T06:00:02.000160
MEAN_MOTION    = 15.37084831
ECCENTRICITY   = .00010378
INCLINATION    = 43.0001
RA_OF_ASC_NODE = 343.8260
ARG_OF_PERICENTER = 285.9540
MEAN_ANOMALY   = 229.3845

EPHEMERIS_TYPE = 0
CLASSIFICATION_TYPE = U
NORAD_CAT_ID   = 67446
ELEMENT_SET_NO = 999
REV_AT_EPOCH   = 587
BSTAR          = -.56923123E-1
MEAN_MOTION_DOT = -.1891117E-1
MEAN_MOTION_DDOT = 0

CCSDS_OMM_VERS = 2.0
CREATION_DATE  = 
ORIGINATOR     = 

OBJECT_NAME    = STARLINK-36440
OBJECT_ID      = 2026-008C
CENTER_NAME    = EARTH
REF_FRAME      = TEME
TIME_SYSTEM    = UTC
MEAN_ELEMENT_THEORY = SGP/SGP4

EPOCH          = 2026-02-13T06:00:02.000160
MEAN_MOTION    = 15.45103182
ECCENTRICITY   = .00015707
INCLINATION    = 42.9998
RA_OF_ASC_NODE = 343.2686
ARG_OF_PERICENTER = 264.1766
MEAN_ANOMALY   = 117.0962

EPHEMERIS_TYPE = 0
CLASSIFICATION_TYPE = U
NORAD_CAT_ID   = 67447
ELEMENT_SET_NO = 999
REV_AT_EPOCH   = 587
BSTAR          = -.45868293E-1
MEAN_MOTION_DOT = -.198407E-1
MEAN_MOTION_DDOT = 0

CCSDS_OMM_VERS = 2.0
CREATION_DATE  = 
ORIGINATOR     = 

OBJECT_NAME    = STARLINK-36423
OBJECT_ID      = 2026-008D
CENTER_NAME    = EARTH
REF_FRAME      = TEME
TIME_SYSTEM    = UTC
MEAN_ELEMENT_THEORY = SGP/SGP4

EPOCH          = 2026-02-12T00:01:23.392416
MEAN_MOTION    = 15.50558051
ECCENTRICITY   = .00010965
INCLINATION    = 42.9995
RA_OF_ASC_NODE = 351.1629
ARG_OF_PERICENTER = 233.8361
MEAN_ANOMALY   = 126.2398

EPHEMERIS_TYPE = 0
CLASSIFICATION_TYPE = U
NORAD_CAT_ID   = 67448
ELEMENT_SET_NO = 999
REV_AT_EPOCH   = 563
BSTAR          = .12205114E-2
MEAN_MOTION_DOT = .71866E-3
MEAN_MOTION_DDOT = 0

CCSDS_OMM_VERS = 2.0
CREATION_DATE  = 
ORIGINATOR     = 

OBJECT_NAME    = STARLINK-36519
OBJECT_ID      = 2026-008E
CENTER_NAME    = EARTH
REF_FRAME      = TEME
TIME_SYSTEM    = UTC
MEAN_ELEMENT_THEORY = SGP/SGP4

EPOCH          = 2026-02-13T06:00:02.000160
MEAN_MOTION    = 15.38425059
ECCENTRICITY   = .00008516
INCLINATION    = 42.9997
RA_OF_ASC_NODE = 343.5071
ARG_OF_PERICENTER = 265.9949
MEAN_ANOMALY   = 18.5833

EPHEMERIS_TYPE = 0
CLASSIFICATION_TYPE = U
NORAD_CAT_ID   = 67449
ELEMENT_SET_NO = 999
REV_AT_EPOCH   = 587
BSTAR          = -.56521154E-1
MEAN_MOTION_DOT = -.1954549E-1
MEAN_MOTION_DDOT = 0

CCSDS_OMM_VERS = 2.0
CREATION_DATE  = 
ORIGINATOR     = 

OBJECT_NAME    = STARLINK-36525
OBJECT_ID      = 2026-008F
CENTER_NAME    = EARTH
REF_FRAME      = TEME
TIME_SYSTEM    = UTC
MEAN_ELEMENT_THEORY = SGP/SGP4

EPOCH          = 2026-02-13T06:00:02.000160
MEAN_MOTION    = 15.47757485
ECCENTRICITY   = .00010957
INCLINATION    = 43.0004
RA_OF_ASC_NODE = 343.7383
ARG_OF_PERICENTER = 272.3612
MEAN_ANOMALY   = 277.7087

EPHEMERIS_TYPE = 0
CLASSIFICATION_TYPE = U
NORAD_CAT_ID   = 67450
ELEMENT_SET_NO = 999
REV_AT_EPOCH   = 587
BSTAR          = -.42728352E-1
MEAN_MOTION_DOT = -.2022516E-1
MEAN_MOTION_DDOT = 0

CCSDS_OMM_VERS = 2.0
CREATION_DATE  = 
ORIGINATOR     = 

OBJECT_NAME    = STARLINK-36511
OBJECT_ID      = 2026-008G
CENTER_NAME    = EARTH
REF_FRAME      = TEME
TIME_SYSTEM    = UTC
MEAN_ELEMENT_THEORY = SGP/SGP4

EPOCH          = 2026-02-13T06:00:02.000160
MEAN_MOTION    = 15.43889190
ECCENTRICITY   = .00013495
INCLINATION    = 43.0007
RA_OF_ASC_NODE = 343.8776
ARG_OF_PERICENTER = 278.4102
MEAN_ANOMALY   = 215.4975

EPHEMERIS_TYPE = 0
CLASSIFICATION_TYPE = U
NORAD_CAT_ID   = 67451
ELEMENT_SET_NO = 999
REV_AT_EPOCH   = 587
BSTAR          = -.47683246E-1
MEAN_MOTION_DOT = -.1978727E-1
MEAN_MOTION_DDOT = 0

CCSDS_OMM_VERS = 2.0
CREATION_DATE  = 
ORIGINATOR     = 

OBJECT_NAME    = STARLINK-36524
OBJECT_ID      = 2026-008H
CENTER_NAME    = EARTH
REF_FRAME      = TEME
TIME_SYSTEM    = UTC
MEAN_ELEMENT_THEORY = SGP/SGP4

EPOCH          = 2026-02-13T06:00:02.000160
MEAN_MOTION    = 15.38988061
ECCENTRICITY   = .00010609
INCLINATION    = 43.0004
RA_OF_ASC_NODE = 343.8139
ARG_OF_PERICENTER = 287.6318
MEAN_ANOMALY   = 231.7742

EPHEMERIS_TYPE = 0
CLASSIFICATION_TYPE = U
NORAD_CAT_ID   = 67452
ELEMENT_SET_NO = 999
REV_AT_EPOCH   = 587
BSTAR          = -.56804701E-1
MEAN_MOTION_DOT = -.1996245E-1
MEAN_MOTION_DDOT = 0

CCSDS_OMM_VERS = 2.0
CREATION_DATE  = 
ORIGINATOR     = 

OBJECT_NAME    = STARLINK-36518
OBJECT_ID      = 2026-008J
CENTER_NAME    = EARTH
REF_FRAME      = TEME
TIME_SYSTEM    = UTC
MEAN_ELEMENT_THEORY = SGP/SGP4

EPOCH          = 2026-02-13T06:00:02.000160
MEAN_MOTION    = 15.32873763
ECCENTRICITY   = .00010093
INCLINATION    = 42.9999
RA_OF_ASC_NODE = 343.4840
ARG_OF_PERICENTER = 267.0885
MEAN_ANOMALY   = 19.4995

EPHEMERIS_TYPE = 0
CLASSIFICATION_TYPE = U
NORAD_CAT_ID   = 67453
ELEMENT_SET_NO = 999
REV_AT_EPOCH   = 589
BSTAR          = -.66878279E-1
MEAN_MOTION_DOT = -.1934495E-1
MEAN_MOTION_DDOT = 0

CCSDS_OMM_VERS = 2.0
CREATION_DATE  = 
ORIGINATOR     = 

OBJECT_NAME    = STARLINK-36517
OBJECT_ID      = 2026-008K
CENTER_NAME    = EARTH
REF_FRAME      = TEME
TIME_SYSTEM    = UTC
MEAN_ELEMENT_THEORY = SGP/SGP4

EPOCH          = 2026-02-13T06:00:02.000160
MEAN_MOTION    = 15.47990541
ECCENTRICITY   = .00013855
INCLINATION    = 43.0002
RA_OF_ASC_NODE = 343.9047
ARG_OF_PERICENTER = 277.9790
MEAN_ANOMALY   = 204.5418

EPHEMERIS_TYPE = 0
CLASSIFICATION_TYPE = U
NORAD_CAT_ID   = 67454
ELEMENT_SET_NO = 999
REV_AT_EPOCH   = 589
BSTAR          = -.42069481E-1
MEAN_MOTION_DOT = -.2009502E-1
MEAN_MOTION_DDOT = 0

CCSDS_OMM_VERS = 2.0
CREATION_DATE  = 
ORIGINATOR     = 

OBJECT_NAME    = STARLINK-36516
OBJECT_ID      = 2026-008L
CENTER_NAME    = EARTH
REF_FRAME      = TEME
TIME_SYSTEM    = UTC
MEAN_ELEMENT_THEORY = SGP/SGP4

EPOCH          = 2026-02-12T21:29:37.362912
MEAN_MOTION    = 15.50661786
ECCENTRICITY   = .0001884
INCLINATION    = 42.9995
RA_OF_ASC_NODE = 345.8319
ARG_OF_PERICENTER = 232.1478
MEAN_ANOMALY   = 127.9212

EPHEMERIS_TYPE = 0
CLASSIFICATION_TYPE = U
NORAD_CAT_ID   = 67455
ELEMENT_SET_NO = 999
REV_AT_EPOCH   = 577
BSTAR          = .14676E-2
MEAN_MOTION_DOT = .86976E-3
MEAN_MOTION_DDOT = 0

CCSDS_OMM_VERS = 2.0
CREATION_DATE  = 
ORIGINATOR     = 

OBJECT_NAME    = STARLINK-36493
OBJECT_ID      = 2026-008M
CENTER_NAME    = EARTH
REF_FRAME      = TEME
TIME_SYSTEM    = UTC
MEAN_ELEMENT_THEORY = SGP/SGP4

EPOCH          = 2026-02-13T05:10:03.834624
MEAN_MOTION    = 15.50613690
ECCENTRICITY   = .00032671
INCLINATION    = 43.0034
RA_OF_ASC_NODE = 343.9275
ARG_OF_PERICENTER = 253.2584
MEAN_ANOMALY   = 106.7918

EPHEMERIS_TYPE = 0
CLASSIFICATION_TYPE = U
NORAD_CAT_ID   = 67456
ELEMENT_SET_NO = 999
REV_AT_EPOCH   = 582
BSTAR          = .14005561E-2
MEAN_MOTION_DOT = .82808E-3
MEAN_MOTION_DDOT = 0

